KUIPER-00165            
1 65778U 25217S   25321.89946948  .00022379  00000+0  60276-3 0  9996
2 65778  51.8702 184.5066 0003619 239.7318 120.3311 15.37749004  8223
KUIPER-00166            
1 65779U 25217T   25321.89133656  .00019111  00000+0  51598-3 0  9998
2 65779  51.8708 184.4575 0003225 212.9884 147.0902 15.37780500  8226
KUIPER-00167            
1 65780U 25217U   25322.16670139  .00013303  00000+0  60003-3 0  9991
2 65780  51.8732 184.3384 0009231 260.6449 280.8920 15.21277589  2379
KUIPER-00168            
1 65781U 25217V   25321.67229539  .00044609  00000+0  11574-2 0  9992
2 65781  51.8723 185.2482 0003175 159.2097 200.9020 15.38546821  8198
KUIPER-00169            
1 65782U 25217W   25321.89249928  .00019770  00000+0  53132-3 0  9999
2 65782  51.8702 184.4661 0002861 228.0117 132.0626 15.37900214  8225
KUIPER-00170            
1 65783U 25217X   25321.92699366  .00033901  00000+0  94237-3 0  9992
2 65783  51.8659 184.6701 0005953 265.9963  94.0343 15.36530996  8226
KUIPER-00171            
1 65784U 25217Y   25321.99107060  .00140917  00000+0  14862-2 0  9996
2 65784  51.8574 181.3987 0007761 269.1425  90.8683 15.63239091  8279
KUIPER-00172            
1 65785U 25217Z   25321.61833024  .00060285  00000+0  15715-2 0  9999
2 65785  51.8684 185.6327 0002259 204.0002 156.0881 15.38269366  8188
KUIPER-00173            
1 65786U 25217AA  25321.88632039  .00034815  00000+0  92403-3 0  9992
2 65786  51.8710 184.4243 0002996 212.5228 147.5575 15.37962981  8227
KUIPER-00174            
1 65787U 25217AB  25321.93710610  .00038145  00000+0  99970-3 0  9997
2 65787  51.8727 184.0190 0003621 186.1692 173.9252 15.38307080  8230
KUIPER-00176            
1 65788U 25217AC  25322.16670139  .00030919  00000+0  11912-2 0  9995
2 65788  51.8752 183.4311 0002554 233.6289  43.3668 15.26077465  4887
KUIPER-00101            
1 65947U 25228A   25322.16670139 -.00487987  00000+0 -21616-1 0  9998
2 65947  51.8845 139.5380 0005134 272.0028 130.0650 15.23338093  4137
KUIPER-00113            
1 65948U 25228B   25322.16670139 -.00132362  00000+0 -41265-2 0  9996
2 65948  51.8789 138.8917 0006305 253.2776  86.4036 15.33169299  5825
KUIPER-00117            
1 65949U 25228C   25322.16670139 -.00774002  00000+0 -29895-1 0  9994
2 65949  51.8783 139.0968 0007561 265.0725 324.4874 15.28151274  5574
KUIPER-00121            
1 65950U 25228D   25321.79298824  .00035956  00000+0  10482-2 0  9990
2 65950  51.8790 140.8539 0005556 277.9234  82.1121 15.35014378  6583
KUIPER-00122            
1 65951U 25228E   25322.16670139 -.00026190  00000+0 -12831-2 0  9998
2 65951  51.8819 140.2421 0006614 294.8715 131.4336 15.17362749  5266
KUIPER-00123            
1 65952U 25228F   25322.16670139 -.00088128  00000+0 -45441-2 0  9991
2 65952  51.8869 140.2540 0005750 280.5603  80.6856 15.16179942  3565
KUIPER-00124            
1 65953U 25228G   25321.53721420  .00063289  00000+0  18594-2 0  9990
2 65953  51.8749 142.1379 0004142 289.9703  70.0836 15.34519120  6540
KUIPER-00125            
1 65954U 25228H   25321.91728509  .00042539  00000+0  12246-2 0  9991
2 65954  51.8777 140.1796 0005530 268.4119  91.6233 15.35333050  6602
KUIPER-00126            
1 65955U 25228J   25322.16670139 -.00128966  00000+0 -56186-2 0  9997
2 65955  51.8851 139.6060 0006175 284.1040  45.7874 15.22206639  4378
KUIPER-00127            
1 65956U 25228K   25322.16670139 -.00039708  00000+0 -13851-2 0  9995
2 65956  51.8786 139.0798 0004876 284.5871 335.6131 15.28982798  5494
KUIPER-00128            
1 65957U 25228L   25321.91660492  .00035879  00000+0  10462-2 0  9997
2 65957  51.8782 140.1833 0006054 268.6067  91.4226 15.35004847  6608
KUIPER-00129            
1 65958U 25228M   25321.91452007  .00056429  00000+0  16149-2 0  9991
2 65958  51.8784 140.1686 0006041 257.2274 102.8037 15.35387631  6609
KUIPER-00130            
1 65959U 25228N   25321.79009640  .00038265  00000+0  11174-2 0  9990
2 65959  51.8753 140.8240 0005986 280.3166  79.7145 15.34931159  6581
KUIPER-00134            
1 65960U 25228P   25321.98748962  .00017040  00000+0  50546-3 0  9995
2 65960  51.8751 139.8978 0005489 276.8114  83.2247 15.34913186  6615
KUIPER-00135            
1 65961U 25228Q   25321.79166161  .00057009  00000+0  16575-2 0  9992
2 65961  51.8789 140.8456 0004002 261.0335  99.0198 15.34896117  6581
KUIPER-00136            
1 65962U 25228R   25321.78288412  .00017373  00000+0  50758-3 0  9998
2 65962  51.8768 140.7865 0005288 259.0261 101.0130 15.35376671  6583
KUIPER-00137            
1 65963U 25228S   25321.79125994  .00021457  00000+0  63404-3 0  9995
2 65963  51.8775 140.8425 0004953 274.1358  85.9062 15.34875657  6589
KUIPER-00138            
1 65964U 25228T   25321.79536354  .00036301  00000+0  10666-2 0  9997
2 65964  51.8759 140.8606 0006941 284.5614  75.4602 15.34756450  6585
KUIPER-00140            
1 65965U 25228U   25321.79706656  .00036592  00000+0  10804-2 0  9998
2 65965  51.8753 140.8747 0005873 284.8045  75.2290 15.34605244  6585
KUIPER-00141            
1 65966U 25228V   25321.91623729  .00051685  00000+0  14842-2 0  9998
2 65966  51.8780 140.1734 0005619 267.5181  92.5161 15.35321462  6602
KUIPER-00146            
1 65967U 25228W   25321.78864209  .00037752  00000+0  11073-2 0  9996
2 65967  51.8781 140.8263 0006029 270.4592  89.5702 15.34797913  6584
KUIPER-00149            
1 65968U 25228X   25321.52252828  .00058978  00000+0  16855-2 0  9993
2 65968  51.8749 142.0404 0007073 270.0108  90.0067 15.35404471  6541
KUIPER-00154            
1 65969U 25228Y   25321.91291993  .00034269  00000+0  99670-3 0  9997
2 65969  51.8776 140.1541 0005388 261.7308  98.3067 15.35112445  6604
KUIPER-00157            
1 65970U 25228Z   25321.79245757  .00032433  00000+0  95243-3 0  9995
2 65970  51.8770 140.8496 0005675 284.9775  75.0582 15.34834478  6587
